{
  "type": "FeatureCollection",
  "name": "uberlandia_mg",
  "crs": {
    "type": "name",
    "properties": {
      "name": "urn:ogc:def:crs:OGC:1.3:CRS84"
    }
  },
  "features": [
    {
      "type": "Feature",
      "properties": {
        "nome": "Uberlandia",
        "uf": "MG",
        "ibge_code": "3170206",
        "tipologia": "cidade_media_urbana_consolidada",
        "populacao_2022": 713224,
        "area_km2_urbana_aproximada": 220,
        "descricao": "Cidade media-grande do Triangulo Mineiro, malha urbana consolidada com mistura de padroes residenciais horizontais e verticais. AOI cobre a mancha urbana principal (nao o municipio inteiro, que tem area rural significativa). Recorte pensado para permitir comparacao direta com Cambuquira em contexto urbano consolidado.",
        "fonte_polígono": "Bounding box aproximada da mancha urbana com base em imagens de satelite recentes — recorte de trabalho, nao limite oficial"
      },
      "geometry": {
        "type": "Polygon",
        "coordinates": [
          [
            [-48.36, -19.00],
            [-48.36, -18.83],
            [-48.18, -18.83],
            [-48.18, -19.00],
            [-48.36, -19.00]
          ]
        ]
      }
    }
  ]
}
